<kml>
 <Document>
  <Style id="yellow">
   <LineStyle>
   <color>ff00ffff</color>
   <width>1</width>
   </LineStyle>
  </Style>
  <Style id="red">
   <LineStyle>
   <color>ffff0000</color>
   <width>2</width>
   </LineStyle>
  </Style>
  <Style id="green">
   <LineStyle>
   <color>ff00ff00</color>
   <width>1</width>
   </LineStyle>
  </Style>
  <Placemark>
  <styleUrl>#yellow</styleUrl>
   <MultiGeometry>
    <LineString>
     <coordinates>
-72.16844642,42.54341399,346.68
-72.16848534,42.54341495,354.10
-72.16851539,42.54341569,338.19
-72.16857961,42.54341728,349.38
-72.16860492,42.54341791,353.85
-72.16862292,42.54341835,349.89
-72.16864615,42.54341893,355.59
-72.16865090,42.54341905,353.13
-72.16867681,42.54341969,339.12
-72.16882314,42.54342330,358.77
-72.16884734,42.54342390,359.58
-72.16887094,42.54342449,354.46
-72.16889904,42.54342518,357.65
-72.16902932,42.54342840,354.72
-72.16907578,42.54342955,361.37
-72.16907700,42.54342958,358.52
-72.16908041,42.54342967,358.28
-72.16911337,42.54343048,341.97
-72.16912116,42.54343067,358.38
-72.16917541,42.54343201,360.13
-72.16917869,42.54343210,363.72
-72.16918112,42.54343216,357.52
-72.16923136,42.54343340,365.18
-72.16932332,42.54343567,368.53
-72.16941479,42.54343793,365.83
-72.16949836,42.54344000,371.72
-72.16974213,42.54344602,377.79
-72.16981511,42.54344783,381.64
-72.16983129,42.54344823,373.23
-72.16985124,42.54344872,363.16
-72.16986121,42.54344897,358.05
-72.16989600,42.54344983,382.35
-72.16990233,42.54344998,378.69
-72.16997835,42.54345186,386.65
-72.16999234,42.54345221,379.49
-72.17015206,42.54345616,389.00
-72.17015546,42.54345624,387.10
-72.17015923,42.54345633,385.25
-72.17020193,42.54345739,396.22
-72.17020923,42.54345757,392.37
-72.17045153,42.54346356,406.34
-72.17047173,42.54346406,396.63
-72.17059324,42.54346706,412.23
-72.17068776,42.54346939,411.84
-72.17084966,42.54347339,409.87
-72.17085477,42.54347352,407.32
-72.17099004,42.54347686,420.60
-72.17100050,42.54347712,415.76
-72.17102945,42.54347784,400.73
-72.17113442,42.54348043,424.84
-72.17139242,42.54348680,425.57
-72.17144935,42.54348821,432.04
-72.17154763,42.54349064,422.80
-72.17157391,42.54349129,409.89
-72.17169701,42.54349433,428.74
-72.17178143,42.54349641,425.89
-72.17194467,42.54350045,424.93
-72.17202824,42.54350251,426.09
-72.17208066,42.54350380,429.92
-72.17222566,42.54350739,403.65
-72.17234912,42.54351043,413.13
-72.17236117,42.54351073,409.97
-72.17249400,42.54351401,400.48
-72.17261041,42.54351689,406.82
-72.17261758,42.54351706,403.46
-72.17266186,42.54351816,417.30
-72.17266344,42.54351820,416.57
-72.17269483,42.54351897,418.95
-72.17271198,42.54351939,414.46
-72.17273740,42.54352002,416.83
-72.17289383,42.54352389,417.35
-72.17290040,42.54352405,414.73
-72.17307447,42.54352834,418.93
-72.17307945,42.54352847,417.49
-72.17312203,42.54352952,406.64
-72.17313492,42.54352984,411.50
-72.17318407,42.54353105,412.68
-72.17318881,42.54353117,411.22
-72.17327858,42.54353338,415.30
-72.17328661,42.54353358,413.23
-72.17335692,42.54353532,414.75
-72.17341153,42.54353667,418.93
-72.17342333,42.54353696,413.49
-72.17351189,42.54353914,411.09
-72.17356358,42.54354042,412.60
-72.17357478,42.54354070,415.23
-72.17358268,42.54354089,411.35
-72.17365092,42.54354258,412.30
-72.17365834,42.54354276,408.58
-72.17368559,42.54354343,404.85
-72.17373096,42.54354455,407.51
-72.17374751,42.54354496,410.94
-72.17389834,42.54354868,402.66
-72.17390661,42.54354889,398.88
-72.17391063,42.54354899,414.97
-72.17393933,42.54354969,414.09
-72.17395612,42.54355011,405.55
-72.17396098,42.54355023,402.91
-72.17396330,42.54355029,402.25
-72.17398276,42.54355077,418.28
-72.17398616,42.54355085,417.58
-72.17406961,42.54355291,418.01
-72.17408445,42.54355328,413.98
-72.17417082,42.54355541,416.36
-72.17421509,42.54355650,394.64
-72.17423443,42.54355698,400.57
-72.17426436,42.54355772,414.10
-72.17427068,42.54355787,412.56
-72.17432493,42.54355921,407.43
-72.17441312,42.54356139,401.33
-72.17449122,42.54356331,398.09
-72.17454170,42.54356456,410.28
-72.17454572,42.54356457,409.68
-72.17456155,42.54356451,407.79
-72.17457241,42.54356397,408.89
-72.17458525,42.54356293,411.60
-72.17458708,42.54356271,412.82
-72.17459012,42.54356017,398.77
-72.17459018,42.54355882,405.37
-72.17459140,42.54353184,400.31
-72.17459212,42.54351592,409.65
-72.17459468,42.54345916,406.49
-72.17459511,42.54344963,405.90
-72.17459912,42.54336067,409.22
-72.17459997,42.54334196,409.11
-72.17460006,42.54333980,396.92
-72.17460120,42.54331461,407.19
-72.17460234,42.54328943,399.17
-72.17460291,42.54327683,396.46
-72.17460944,42.54313193,403.02
-72.17461198,42.54307580,397.76
-72.17461716,42.54296103,403.63
-72.17461723,42.54295932,397.17
-72.17461799,42.54294250,392.98
-72.17461940,42.54291137,398.13
-72.17462453,42.54279768,377.26
-72.17462662,42.54275127,396.51
-72.17463011,42.54267400,391.21
-72.17463121,42.54264971,385.53
-72.17463296,42.54261077,398.90
-72.17463314,42.54260681,396.37
-72.17463658,42.54253062,392.85
-72.17463766,42.54250670,392.10
-72.17463804,42.54249833,392.24
-72.17463953,42.54246532,393.15
-72.17464031,42.54244787,395.44
-72.17464105,42.54243159,394.05
-72.17464776,42.54228281,376.71
-72.17464845,42.54226752,385.95
-72.17465095,42.54221220,387.11
-72.17465207,42.54218729,385.28
-72.17465457,42.54213188,386.97
-72.17465510,42.54212028,382.39
-72.17466122,42.54198455,382.16
-72.17466309,42.54194317,369.49
-72.17466536,42.54189280,385.92
-72.17466769,42.54184108,387.67
-72.17467516,42.54167566,381.75
-72.17468095,42.54154731,378.97
-72.17468459,42.54146662,376.64
-72.17468557,42.54144494,371.97
-72.17468604,42.54143460,379.27
-72.17468844,42.54138135,355.89
-72.17469492,42.54123779,374.37
-72.17469528,42.54122979,372.71
-72.17470174,42.54108650,361.07
-72.17470439,42.54102785,367.28
-72.17470758,42.54095706,349.59
-72.17470769,42.54095481,369.18
-72.17470790,42.54095005,371.59
-72.17470900,42.54092576,372.94
-72.17470982,42.54090750,368.41
-72.17471625,42.54076502,346.49
-72.17471824,42.54072086,367.65
-72.17472655,42.54053673,361.36
-72.17472879,42.54048708,364.04
-72.17473041,42.54045128,362.96
-72.17473077,42.54044319,362.76
-72.17474174,42.54019997,349.04
-72.17475817,42.53983595,346.42
-72.17476140,42.53976444,343.77
-72.17476394,42.53970813,346.78
-72.17476561,42.53967098,348.68
-72.17476605,42.53966136,344.67
-72.17477067,42.53955891,345.94
-72.17477116,42.53954811,343.71
-72.17477653,42.53942902,345.07
-72.17477761,42.53940509,344.57
-72.17477834,42.53938881,350.52
-72.17477842,42.53938719,344.39
-72.17477983,42.53935589,346.54
-72.17479133,42.53910098,344.67
-72.17479151,42.53909702,345.76
-72.17479245,42.53907615,344.52
-72.17480546,42.53878769,355.45
-72.17480835,42.53872382,367.08
-72.17480910,42.53870718,363.90
-72.17481115,42.53866176,365.08
-72.17481387,42.53860131,370.42
-72.17481934,42.53848006,368.14
-72.17481959,42.53847458,357.05
-72.17482160,42.53842996,371.69
-72.17482353,42.53838733,367.36
-72.17482399,42.53837716,369.17
-72.17482510,42.53835243,368.16
-72.17482880,42.53827048,372.49
-72.17483484,42.53813646,364.78
-72.17483910,42.53804219,375.22
-72.17484755,42.53785483,375.72
-72.17486287,42.53751536,368.21
-72.17486365,42.53749791,367.08
-72.17486446,42.53748001,356.73
-72.17486773,42.53740743,372.60
-72.17486938,42.53737100,353.01
-72.17487131,42.53732809,372.46
-72.17487176,42.53731820,376.56
-72.17487258,42.53730012,376.89
-72.17487307,42.53728905,381.42
-72.17487638,42.53721575,378.37
-72.17487955,42.53714550,378.19
-72.17487975,42.53714109,377.52
-72.17488310,42.53706688,378.56
-72.17488372,42.53705312,355.99
-72.17488412,42.53704421,378.77
-72.17488682,42.53698440,381.98
-72.17489164,42.53687754,383.60
-72.17490456,42.53659114,384.90
-72.17490887,42.53649562,361.74
-72.17491151,42.53643715,376.66
-72.17491258,42.53641340,381.97
-72.17491713,42.53631248,375.06
-72.17492011,42.53624646,373.42
-72.17492307,42.53618080,379.28
-72.17492322,42.53617756,379.85
-72.17492460,42.53614698,380.45
-72.17492499,42.53613825,373.41
-72.17492738,42.53608536,378.73
-72.17492771,42.53607799,377.33
-72.17492955,42.53603724,381.40
-72.17493126,42.53599928,382.23
-72.17493484,42.53591995,368.53
-72.17493747,42.53586157,383.13
-72.17494062,42.53579186,364.58
-72.17494126,42.53577747,376.57
-72.17494197,42.53576173,369.27
-72.17494316,42.53573546,365.06
-72.17494410,42.53571450,369.22
-72.17494414,42.53571370,362.56
-72.17494842,42.53561880,365.17
-72.17495109,42.53555961,383.79
-72.17495419,42.53549098,386.69
-72.17495637,42.53544259,386.80
-72.17496465,42.53525901,386.33
-72.17496596,42.53523004,367.44
-72.17496813,42.53518192,365.23
-72.17497258,42.53508334,383.65
-72.17497301,42.53507380,387.54
-72.17497311,42.53507155,382.34
-72.17497639,42.53499878,388.35
-72.17497965,42.53492647,380.20
-72.17498132,42.53488941,381.79
-72.17498420,42.53482554,387.32
-72.17498790,42.53474360,390.14
-72.17498832,42.53473434,378.22
-72.17499089,42.53467731,389.50
-72.17499400,42.53460039,386.85
-72.17499421,42.53458203,383.02
-72.17498620,42.53457337,391.01
-72.17498386,42.53457124,385.03
-72.17497732,42.53457054,387.76
-72.17497319,42.53457043,388.58
-72.17476290,42.53456524,390.28
-72.17472398,42.53456428,389.97
-72.17467497,42.53456308,366.22
-72.17466682,42.53456287,390.80
-72.17459494,42.53456110,385.17
-72.17457487,42.53456061,378.65
-72.17439888,42.53455626,374.76
-72.17439389,42.53455614,376.07
-72.17439256,42.53455611,376.10
-72.17435814,42.53455526,384.13
-72.17435437,42.53455516,385.11
-72.17422922,42.53455208,379.19
-72.17422350,42.53455193,370.13
-72.17421876,42.53455182,371.43
-72.17417789,42.53455081,368.84
-72.17414031,42.53454988,377.62
-72.17412693,42.53454955,380.83
-72.17406442,42.53454801,380.24
-72.17406040,42.53454791,381.38
-72.17401881,42.53454688,370.03
-72.17397369,42.53454577,380.40
-72.17394900,42.53454516,386.09
-72.17389439,42.53454381,380.80
-72.17379174,42.53454128,382.57
-72.17376887,42.53454071,382.40
-72.17351906,42.53453455,367.07
-72.17346116,42.53453312,380.44
-72.17337773,42.53453106,380.09
-72.17333735,42.53453006,363.77
-72.17329843,42.53452910,376.49
-72.17328335,42.53452873,376.48
-72.17325076,42.53452792,377.96
-72.17319384,42.53452652,378.29
-72.17313047,42.53452496,370.31
-72.17306662,42.53452338,376.83
-72.17301894,42.53452220,371.68
-72.17300897,42.53452196,378.56
-72.17298732,42.53452142,378.75
-72.17296555,42.53452088,366.07
-72.17288479,42.53451889,374.25
-72.17281608,42.53451719,367.77
-72.17280939,42.53451703,369.61
-72.17280756,42.53451698,369.51
-72.17277971,42.53451630,365.72
-72.17273118,42.53451510,360.59
-72.17265724,42.53451327,358.35
-72.17260992,42.53451210,372.88
-72.17256067,42.53451089,371.39
-72.17254048,42.53451039,363.12
-72.17240985,42.53450716,367.83
-72.17228896,42.53450418,371.96
-72.17228361,42.53450405,373.27
-72.17220151,42.53450202,370.16
-72.17217974,42.53450148,375.32
-72.17208634,42.53449917,373.54
-72.17198016,42.53449655,374.44
-72.17197323,42.53449638,375.93
-72.17189442,42.53449443,369.15
-72.17185525,42.53449347,361.26
-72.17181463,42.53449246,371.04
-72.17180210,42.53449215,374.06
-72.17172597,42.53449027,363.97
-72.17162417,42.53448776,365.22
-72.17161176,42.53448745,368.13
-72.17160544,42.53448730,369.59
-72.17159303,42.53448699,372.87
-72.17141425,42.53448257,367.54
-72.17120190,42.53447733,370.89
-72.17112746,42.53447549,365.39
-72.17111189,42.53447510,368.99
-72.17102603,42.53447298,365.19
-72.17085454,42.53446874,357.14
-72.17069375,42.53446477,354.22
-72.17054939,42.53446120,360.42
-72.17046316,42.53445907,360.15
-72.17021784,42.53445301,346.77
-72.17021322,42.53445290,347.77
-72.16999649,42.53444754,352.19
-72.16999260,42.53444744,353.19
-72.16984325,42.53444375,344.93
-72.16982707,42.53444335,348.78
-72.16957385,42.53443709,339.01
-72.16956607,42.53443690,339.84
-72.16955999,42.53443675,341.16
-72.16944165,42.53443383,335.67
-72.16940419,42.53443290,352.22
-72.16939932,42.53443278,353.42
-72.16938558,42.53443244,344.65
-72.16934788,42.53443151,350.47
-72.16933851,42.53443128,347.31
-72.16925994,42.53442933,338.23
-72.16914647,42.53442653,333.29
-72.16906024,42.53442440,336.79
-72.16902728,42.53442358,341.85
-72.16897182,42.53442221,339.74
-72.16879851,42.53441793,334.12
-72.16877564,42.53441736,334.19
-72.16870778,42.53441568,334.14
-72.16861462,42.53441338,334.06
-72.16850260,42.53441061,333.91
-72.16845638,42.53440947,335.62
-72.16842002,42.53440857,333.81
-72.16831178,42.53440589,333.83
-72.16821995,42.53440362,333.81
-72.16817531,42.53440252,333.85
-72.16808896,42.53440038,333.99
-72.16804275,42.53439924,333.76
-72.16793134,42.53439648,333.98
-72.16787248,42.53439503,333.81
-72.16770014,42.53439076,341.40
-72.16763556,42.53438917,334.24
-72.16763276,42.53438910,335.65
-72.16762400,42.53438888,337.27
-72.16755273,42.53438712,334.54
-72.16753814,42.53438676,338.04
-72.16753266,42.53438662,339.64
-72.16750651,42.53438597,344.31
-72.16744911,42.53438455,353.65
-72.16737212,42.53438265,354.54
-72.16737030,42.53438260,355.49
-72.16731861,42.53438133,350.27
-72.16730827,42.53438107,346.77
-72.16727276,42.53438019,356.21
-72.16717169,42.53437769,351.22
-72.16714821,42.53437711,341.41
-72.16712681,42.53437658,343.61
-72.16710711,42.53437609,348.55
-72.16710443,42.53437603,349.27
-72.16710261,42.53437598,348.60
-72.16709166,42.53437571,353.05
-72.16704654,42.53437459,347.68
-72.16700896,42.53437366,353.60
-72.16693975,42.53437195,351.43
-72.16691750,42.53437140,346.58
-72.16685681,42.53436990,342.26
-72.16677982,42.53436799,341.33
-72.16675027,42.53436726,346.02
-72.16665346,42.53436487,350.95
-72.16659654,42.53436346,337.93
-72.16652502,42.53436169,336.95
-72.16651906,42.53436154,338.00
-72.16650191,42.53436112,340.74
-72.16629893,42.53435609,337.78
-72.16629321,42.53435595,338.78
-72.16623702,42.53435456,337.31
-72.16616684,42.53435283,348.57
-72.16613972,42.53435215,339.72
-72.16606201,42.53435023,343.00
-72.16605714,42.53435011,343.81
-72.16604620,42.53434984,345.50
-72.16604060,42.53434970,346.43
-72.16586790,42.53434543,339.01
-72.16575078,42.53434253,346.56
-72.16562259,42.53433936,343.66
-72.16558853,42.53433851,349.14
-72.16543748,42.53433477,328.85
-72.16537521,42.53433323,348.86
-72.16537046,42.53433311,349.80
-72.16515823,42.53432786,338.38
-72.16513123,42.53432719,342.71
-72.16511311,42.53432674,345.61
-72.16501885,42.53432441,348.09
-72.16494369,42.53432255,339.08
-72.16484566,42.53432012,343.57
-72.16479033,42.53431875,340.16
-72.16469643,42.53431643,342.44
-72.16460680,42.53431421,347.89
-72.16450549,42.53431170,336.27
-72.16446146,42.53431061,325.10
-72.16444383,42.53431017,338.32
-72.16438253,42.53430865,338.82
-72.16436501,42.53430822,340.82
-72.16431247,42.53430692,337.42
-72.16417310,42.53430347,337.93
-72.16402910,42.53429990,334.79
-72.16398920,42.53429891,333.86
-72.16393545,42.53429758,319.51
-72.16386868,42.53429593,324.09
-72.16385214,42.53429552,333.21
-72.16378853,42.53429394,330.40
-72.16373611,42.53429264,330.87
-72.16370254,42.53429181,334.97
-72.16367530,42.53429114,333.58
-72.16354820,42.53428799,338.24
-72.16348095,42.53428632,334.07
-72.16341077,42.53428458,340.61
-72.16338256,42.53428388,340.12
-72.16337538,42.53428371,341.44
-72.16335105,42.53428310,338.23
-72.16331639,42.53428225,322.27
-72.16327395,42.53428119,337.63
-72.16321983,42.53427985,322.86
-72.16321338,42.53427969,335.98
-72.16313846,42.53427784,336.22
-72.16289376,42.53427177,331.42
-72.16289230,42.53427174,341.43
-72.16286505,42.53427106,340.65
-72.16284000,42.53427044,340.19
-72.16283779,42.53427084,339.46
-72.16283467,42.53427247,340.61
-72.16283347,42.53427478,339.44
-72.16283212,42.53430203,338.28
-72.16283054,42.53433684,337.72
-72.16282773,42.53439882,338.94
-72.16282657,42.53442454,319.80
-72.16282415,42.53447779,340.14
-72.16282354,42.53449128,328.14
-72.16282320,42.53449893,322.00
-72.16281875,42.53459697,339.33
-72.16281632,42.53465076,344.79
-72.16281294,42.53472542,329.15
-72.16281182,42.53475015,344.94
-72.16280929,42.53480583,336.20
-72.16280857,42.53482184,338.96
-72.16280797,42.53483506,325.97
-72.16280748,42.53484595,321.40
-72.16280609,42.53487662,343.84
-72.16280492,42.53490225,333.67
-72.16280429,42.53491638,321.84
-72.16280428,42.53491656,343.59
-72.16280274,42.53495047,346.43
-72.16280241,42.53495775,339.72
-72.16280128,42.53498276,342.92
-72.16280060,42.53499778,339.48
-72.16279900,42.53503295,329.68
-72.16279577,42.53510437,341.24
-72.16279486,42.53512443,342.38
-72.16279424,42.53513819,339.31
-72.16279237,42.53517929,334.64
-72.16279048,42.53522103,340.13
-72.16278941,42.53524469,342.48
-72.16278744,42.53528813,337.98
-72.16278450,42.53535307,344.58
-72.16278310,42.53538401,345.82
-72.16278271,42.53539274,324.48
-72.16278194,42.53540965,345.61
-72.16278146,42.53542026,344.51
-72.16277874,42.53548026,342.46
-72.16277651,42.53552937,343.54
-72.16277645,42.53553081,340.01
-72.16277630,42.53553405,346.11
-72.16277350,42.53559602,344.62
-72.16277293,42.53560843,345.57
-72.16277218,42.53562507,346.24
-72.16277153,42.53563947,325.86
-72.16277084,42.53565458,343.39
-72.16276978,42.53567796,346.62
-72.16276764,42.53572519,347.58
-72.16276565,42.53576926,341.60
-72.16276256,42.53583744,347.04
-72.16275997,42.53589447,344.41
-72.16275965,42.53590157,343.28
-72.16275522,42.53599944,347.91
-72.16275425,42.53602093,345.73
-72.16275378,42.53603119,350.33
-72.16275198,42.53607085,345.75
-72.16275099,42.53609280,348.73
-72.16274900,42.53613679,348.91
-72.16274786,42.53616197,348.26
-72.16274734,42.53617339,350.53
-72.16274471,42.53623132,346.73
-72.16274344,42.53625938,332.34
-72.16274051,42.53632406,353.50
-72.16273821,42.53637497,350.35
-72.16273804,42.53637866,353.84
-72.16273709,42.53639952,347.54
-72.16273584,42.53642723,350.76
-72.16273298,42.53649019,346.03
-72.16272829,42.53659372,358.05
-72.16272813,42.53659741,331.95
-72.16272765,42.53660793,349.62
-72.16272552,42.53665497,352.77
-72.16272550,42.53665533,332.73
-72.16272462,42.53667494,334.39
-72.16272321,42.53670588,342.68
-72.16271883,42.53680258,351.85
-72.16271806,42.53681958,352.58
-72.16271736,42.53683505,351.19
-72.16271727,42.53683712,349.86
-72.16271716,42.53683955,350.24
-72.16271619,42.53686095,351.75
-72.16271561,42.53687373,330.72
-72.16271391,42.53691123,335.73
-72.16270890,42.53702178,345.72
-72.16270576,42.53709104,354.67
-72.16270397,42.53713053,345.01
-72.16269522,42.53732364,352.85
-72.16269169,42.53740163,348.42
-72.16269133,42.53740963,333.45
-72.16269088,42.53741944,350.47
-72.16269008,42.53743725,349.23
-72.16268821,42.53747835,354.67
-72.16268539,42.53754069,334.01
-72.16268525,42.53754384,356.61
-72.16268384,42.53757487,352.22
-72.16268303,42.53759268,356.52
-72.16267514,42.53776691,355.13
-72.16267464,42.53777788,363.67
-72.16267459,42.53777914,335.68
-72.16267342,42.53780486,364.93
-72.16267209,42.53783428,358.24
-72.16266946,42.53789229,356.65
-72.16266802,42.53792413,358.94
-72.16266571,42.53797505,337.29
-72.16266458,42.53799987,358.00
-72.16266457,42.53800014,360.19
-72.16266366,42.53802020,356.23
-72.16266254,42.53804493,357.31
-72.16266175,42.53806247,359.77
-72.16265912,42.53812040,349.93
-72.16265603,42.53818867,355.08
-72.16265601,42.53818912,350.90
-72.16265452,42.53822195,357.06
-72.16265395,42.53823463,358.65
-72.16265386,42.53823661,354.97
-72.16265354,42.53824372,351.87
-72.16265349,42.53824480,354.74
-72.16265299,42.53825586,338.64
-72.16265290,42.53825775,355.65
-72.16265255,42.53826558,355.74
-72.16264632,42.53840302,343.73
-72.16264137,42.53851212,343.90
-72.16264023,42.53853740,339.38
-72.16263984,42.53854594,339.55
-72.16263349,42.53868617,340.66
-72.16263324,42.53869157,354.40
-72.16263168,42.53872602,340.89
-72.16263088,42.53874374,350.57
-72.16263073,42.53874706,340.10
-72.16262980,42.53876748,353.21
-72.16262967,42.53877054,353.25
-72.16262923,42.53878017,344.57
-72.16262907,42.53878376,353.20
-72.16262821,42.53880256,345.20
-72.16262763,42.53881542,343.96
-72.16262748,42.53881884,340.52
-72.16262693,42.53883081,340.75
-72.16262599,42.53885176,341.17
-72.16262366,42.53890312,340.97
-72.16262264,42.53892570,341.07
-72.16261877,42.53901106,362.07
-72.16261869,42.53901277,358.95
-72.16261867,42.53901313,344.24
-72.16261867,42.53901322,361.07
-72.16261809,42.53902599,358.22
-72.16261517,42.53909039,341.30
-72.16261267,42.53914562,341.55
-72.16261242,42.53915120,342.84
-72.16260916,42.53922307,342.17
-72.16260609,42.53929089,342.13
-72.16260112,42.53940044,359.61
-72.16260071,42.53940962,360.38
-72.16259766,42.53947690,358.85
-72.16259763,42.53947753,361.09
-72.16259668,42.53949849,357.95
-72.16259610,42.53951135,359.22
-72.16259583,42.53951729,355.58
-72.16259501,42.53953537,355.18
-72.16259500,42.53953564,343.08
-72.16259496,42.53953644,349.59
-72.16259344,42.53957000,349.77
-72.16259310,42.53957755,348.53
-72.16259254,42.53958987,348.33
-72.16259231,42.53959500,348.38
-72.16259199,42.53960202,351.85
-72.16259157,42.53961119,353.76
-72.16258766,42.53969763,358.37
-72.16258538,42.53974782,351.59
-72.16258328,42.53979423,357.71
-72.16258273,42.53980638,358.37
-72.16258264,42.53980836,354.75
-72.16258140,42.53983570,353.65
-72.16258025,42.53986107,350.03
-72.16257808,42.53990901,358.39
-72.16257296,42.54002189,361.77
-72.16256928,42.54010320,361.20
-72.16256885,42.54011265,364.69
-72.16256854,42.54011957,361.26
-72.16256784,42.54013496,365.43
-72.16256566,42.54018317,361.30
-72.16256517,42.54019396,343.93
-72.16256457,42.54020718,361.09
-72.16256293,42.54024325,359.36
-72.16256125,42.54028040,359.14
-72.16255689,42.54037664,344.51
-72.16255628,42.54038996,358.92
-72.16255610,42.54039400,354.08
-72.16255558,42.54040552,357.96
-72.16255540,42.54040948,353.94
-72.16255448,42.54042971,351.16
-72.16255383,42.54044402,344.85
-72.16255239,42.54047595,344.91
-72.16255178,42.54048935,352.89
-72.16254641,42.54060790,357.36
-72.16254334,42.54067563,356.42
-72.16254288,42.54068579,356.11
-72.16254255,42.54069308,350.56
-72.16254193,42.54070666,347.64
-72.16254178,42.54071008,352.94
-72.16254117,42.54072339,360.32
-72.16254050,42.54073823,354.00
-72.16254048,42.54073877,362.85
-72.16253938,42.54076306,363.53
-72.16253726,42.54080974,361.72
-72.16253679,42.54082018,361.52
-72.16253461,42.54086821,361.01
-72.16253416,42.54087810,361.04
-72.16253305,42.54090275,358.53
-72.16253197,42.54092649,354.29
-72.16253184,42.54092937,350.92
-72.16253132,42.54094080,353.46
-72.16253033,42.54096265,351.05
-72.16253008,42.54096832,353.79
-72.16252939,42.54098343,354.34
-72.16252864,42.54099989,358.84
-72.16252858,42.54100124,355.30
-72.16252854,42.54100214,364.49
-72.16252626,42.54105242,360.31
-72.16252570,42.54106492,362.35
-72.16252520,42.54107590,362.48
-72.16252484,42.54108390,351.87
-72.16251968,42.54119769,356.21
-72.16251962,42.54119894,361.50
-72.16251726,42.54125102,345.43
-72.16251697,42.54125750,352.04
-72.16251572,42.54128511,345.55
-72.16251362,42.54133144,345.19
-72.16251117,42.54138550,354.70
-72.16250910,42.54143128,356.95
-72.16250730,42.54147095,358.64
-72.16250568,42.54150657,344.68
-72.16249653,42.54170859,344.02
-72.16249105,42.54182939,343.99
-72.16249018,42.54184873,343.95
-72.16248926,42.54186905,343.90
-72.16248656,42.54192851,343.87
-72.16248346,42.54199705,343.84
-72.16248166,42.54203672,343.81
-72.16247831,42.54211065,343.67
-72.16246996,42.54229496,343.32
-72.16246945,42.54230611,343.34
-72.16246885,42.54231933,343.23
-72.16246774,42.54234380,343.33
-72.16246474,42.54241000,343.41
-72.16246099,42.54249284,343.19
-72.16245766,42.54256615,344.15
-72.16245554,42.54261301,344.07
-72.16245079,42.54271789,347.27
-72.16245069,42.54271996,353.52
-72.16244872,42.54276340,354.86
-72.16244846,42.54276934,361.76
-72.16244722,42.54279659,342.96
-72.16244590,42.54282582,360.75
-72.16244121,42.54292917,361.69
-72.16244102,42.54293340,358.32
-72.16243867,42.54298521,362.34
-72.16243698,42.54302254,362.68
-72.16243661,42.54303073,364.06
-72.16243611,42.54304170,363.28
-72.16243609,42.54304224,359.89
-72.16243265,42.54311806,361.19
-72.16243075,42.54316007,361.39
-72.16242986,42.54317968,357.25
-72.16242909,42.54319659,357.61
-72.16242656,42.54325524,354.03
-72.16242653,42.54326388,355.84
-72.16243524,42.54326509,351.93
-72.16251029,42.54326704,359.19
-72.16261806,42.54326971,357.05
-72.16266161,42.54327079,361.75
-72.16270503,42.54327186,358.86
-72.16273143,42.54327252,356.45
-72.16273459,42.54327260,355.81
-72.16283421,42.54327506,366.72
-72.16283653,42.54327512,365.30
-72.16287727,42.54327613,357.74
-72.16288530,42.54327633,356.89
-72.16292958,42.54327743,339.79
-72.16299247,42.54327899,366.20
-72.16305402,42.54328051,360.81
-72.16305681,42.54328058,361.60
-72.16318016,42.54328364,340.49
-72.16332734,42.54328728,340.48
-72.16333719,42.54328753,340.48
-72.16343669,42.54328999,340.30
-72.16344861,42.54329029,340.24
-72.16349082,42.54329133,340.30
-72.16364628,42.54329518,339.55
-72.16373398,42.54329736,339.58
-72.16384942,42.54330022,338.78
-72.16389126,42.54330125,352.47
-72.16390367,42.54330156,359.13
-72.16395731,42.54330289,353.25
-72.16400013,42.54330395,351.33
-72.16403248,42.54330475,337.70
-72.16405705,42.54330536,350.76
-72.16412043,42.54330693,348.65
-72.16414026,42.54330742,337.79
-72.16415376,42.54330775,352.79
-72.16423088,42.54330966,337.82
-72.16427345,42.54331072,340.11
-72.16432357,42.54331196,339.83
-72.16435908,42.54331284,351.24
-72.16439363,42.54331369,340.11
-72.16440896,42.54331407,353.85
-72.16482618,42.54332441,341.53
-72.16492386,42.54332682,350.65
-72.16503406,42.54332955,338.59
-72.16529060,42.54333590,339.00
-72.16538110,42.54333814,340.09
-72.16554130,42.54334211,358.06
-72.16555115,42.54334235,356.26
-72.16576365,42.54334761,362.26
-72.16576864,42.54334774,361.28
-72.16585586,42.54334990,353.90
-72.16600645,42.54335362,353.33
-72.16604014,42.54335446,354.59
-72.16616531,42.54335756,339.70
-72.16619998,42.54335841,341.39
-72.16621396,42.54335876,350.36
-72.16635665,42.54336229,349.06
-72.16642878,42.54336408,343.24
-72.16654178,42.54336687,338.36
-72.16667534,42.54337018,339.45
-72.16672120,42.54337131,339.82
-72.16682143,42.54337379,338.96
-72.16682362,42.54337385,338.64
-72.16682545,42.54337389,337.64
-72.16682812,42.54337396,337.63
-72.16683664,42.54337417,343.08
-72.16686413,42.54337485,337.62
-72.16696205,42.54337727,338.22
-72.16697701,42.54337764,346.85
-72.16698297,42.54337779,344.10
-72.16699939,42.54337820,347.10
-72.16714451,42.54338179,351.09
-72.16714803,42.54338187,349.08
-72.16722211,42.54338371,337.69
-72.16722540,42.54338379,347.31
-72.16725058,42.54338441,342.03
-72.16729498,42.54338551,340.65
-72.16735032,42.54338688,351.64
-72.16735653,42.54338703,348.73
-72.16738864,42.54338783,348.98
-72.16741078,42.54338837,353.53
-72.16745445,42.54338945,340.96
-72.16748072,42.54339010,339.12
-72.16752013,42.54339108,348.55
-72.16752232,42.54339113,347.21
-72.16752475,42.54339119,345.34
-72.16752694,42.54339125,344.35
-72.16753899,42.54339155,338.13
-72.16755504,42.54339194,348.91
-72.16756830,42.54339227,337.80
-72.16761465,42.54339342,339.40
-72.16765771,42.54339448,338.39
-72.16766841,42.54339475,345.58
-72.16771500,42.54339590,338.56
-72.16778226,42.54339756,339.02
-72.16786912,42.54339971,353.05
-72.16789819,42.54340043,338.22
-72.16794356,42.54340155,349.59
-72.16796655,42.54340212,344.74
-72.16797750,42.54340239,346.20
-72.16797920,42.54340243,345.07
-72.16799185,42.54340275,338.50
-72.16801168,42.54340324,343.81
-72.16802530,42.54340357,348.91
-72.16819596,42.54340780,347.08
-72.16820204,42.54340795,353.84
-72.16821494,42.54340826,347.01
-72.16844642,42.54341399,346.68
     </coordinates>
    </LineString>
   </MultiGeometry>
  </Placemark>
 </Document>
</kml>
